start=new Date('2022-02-11T00:00:00.000Z').valueOf();
sats=[{"LAUNCH_DATE":"2021-01-20","BSTAR":"0.00017451000000","EPOCH":"2022-02-10T19:37:51.817440","MEAN_ANOMALY":"284.8226","OBJECT_TYPE":"PAYLOAD","TLE_LINE2":"2 47400  53.0537 220.9230 0001573  75.2937 284.8226 15.06398428 59346","SITE":"AFETR","REF_FRAME":"TEME","ECCENTRICITY":"0.00015730","MEAN_MOTION_DDOT":"0.0000000000000","PERIAPSIS":"546.129","RCS_SIZE":"LARGE","CENTER_NAME":"EARTH","MEAN_MOTION":"15.06398428","APOAPSIS":"548.308","COUNTRY_CODE":"US","REV_AT_EPOCH":"5934","NORAD_CAT_ID":"47400","PERIOD":"95.592","TLE_LINE1":"1 47400U 21005BD  22041.81796085  .00002319  00000-0  17451-3 0  9992","MEAN_MOTION_DOT":"0.00002319","RA_OF_ASC_NODE":"220.9230","ARG_OF_PERICENTER":"75.2937","GP_ID":"195714347","EPHEMERIS_TYPE":"0","OBJECT_NAME":"STARLINK-2122","DECAY_DATE":null,"TIME_SYSTEM":"UTC","FILE":"3297147","INCLINATION":"53.0537","MEAN_ELEMENT_THEORY":"SGP4","CLASSIFICATION_TYPE":"U","ELEMENT_SET_NO":"999","SEMIMAJOR_AXIS":"6925.353","OBJECT_ID":"2021-005BD"},{"TLE_LINE2":"2 47401  53.0548 230.8615 0001575  65.9868 294.1285 15.06396435 59218","SITE":"AFETR","REF_FRAME":"TEME","MEAN_ANOMALY":"294.1285","OBJECT_TYPE":"PAYLOAD","EPOCH":"2022-02-10T20:04:24.174624","BSTAR":"0.00001377800000","LAUNCH_DATE":"2021-01-20","APOAPSIS":"548.315","MEAN_MOTION":"15.06396435","CENTER_NAME":"EARTH","PERIAPSIS":"546.134","RCS_SIZE":"LARGE","MEAN_MOTION_DDOT":"0.0000000000000","ECCENTRICITY":"0.00015750","RA_OF_ASC_NODE":"230.8615","TLE_LINE1":"1 47401U 21005BE  22041.83639091 -.00000076  00000-0  13778-4 0  9996","MEAN_MOTION_DOT":"-0.00000076","NORAD_CAT_ID":"47401","PERIOD":"95.592","REV_AT_EPOCH":"5921","COUNTRY_CODE":"US","OBJECT_ID":"2021-005BE","CLASSIFICATION_TYPE":"U","MEAN_ELEMENT_THEORY":"SGP4","ELEMENT_SET_NO":"999","SEMIMAJOR_AXIS":"6925.359","INCLINATION":"53.0548","TIME_SYSTEM":"UTC","FILE":"3297147","DECAY_DATE":null,"OBJECT_NAME":"STARLINK-2123","EPHEMERIS_TYPE":"0","GP_ID":"195715096","ARG_OF_PERICENTER":"65.9868"},{"MEAN_MOTION_DDOT":"0.0000000000000","PERIAPSIS":"546.097","RCS_SIZE":"LARGE","ECCENTRICITY":"0.00016250","APOAPSIS":"548.347","CENTER_NAME":"EARTH","MEAN_MOTION":"15.06397220","EPOCH":"2022-02-10T18:55:25.923936","LAUNCH_DATE":"2021-01-20","BSTAR":"0.00011725000000","MEAN_ANOMALY":"297.0057","OBJECT_TYPE":"PAYLOAD","TLE_LINE2":"2 47402  53.0537 231.0667 0001625  63.1098 297.0057 15.06397220 59209","REF_FRAME":"TEME","SITE":"AFETR","EPHEMERIS_TYPE":"0","DECAY_DATE":null,"OBJECT_NAME":"STARLINK-2124","ARG_OF_PERICENTER":"63.1098","GP_ID":"195713845","CLASSIFICATION_TYPE":"U","MEAN_ELEMENT_THEORY":"SGP4","ELEMENT_SET_NO":"999","SEMIMAJOR_AXIS":"6925.357","OBJECT_ID":"2021-005BF","TIME_SYSTEM":"UTC","FILE":"3297147","INCLINATION":"53.0537","COUNTRY_CODE":"US","REV_AT_EPOCH":"5920","RA_OF_ASC_NODE":"231.0667","NORAD_CAT_ID":"47402","PERIOD":"95.592","MEAN_MOTION_DOT":"0.00001465","TLE_LINE1":"1 47402U 21005BF  22041.78849449  .00001465  00000-0  11725-3 0  9992"},{"APOAPSIS":"548.279","MEAN_MOTION":"15.06399376","CENTER_NAME":"EARTH","RCS_SIZE":"LARGE","PERIAPSIS":"546.152","MEAN_MOTION_DDOT":"0.0000000000000","ECCENTRICITY":"0.00015360","REF_FRAME":"TEME","SITE":"AFETR","TLE_LINE2":"2 47403  53.0535 231.0437 0001536  74.3385 285.7774 15.06399376 59201","OBJECT_TYPE":"PAYLOAD","MEAN_ANOMALY":"285.7774","EPOCH":"2022-02-10T19:06:02.068992","BSTAR":"0.00011069000000","LAUNCH_DATE":"2021-01-20","OBJECT_ID":"2021-005BG","ELEMENT_SET_NO":"999","SEMIMAJOR_AXIS":"6925.350","CLASSIFICATION_TYPE":"U","MEAN_ELEMENT_THEORY":"SGP4","INCLINATION":"53.0535","FILE":"3297147","TIME_SYSTEM":"UTC","DECAY_DATE":null,"OBJECT_NAME":"STARLINK-2127","EPHEMERIS_TYPE":"0","GP_ID":"195714095","ARG_OF_PERICENTER":"74.3385","RA_OF_ASC_NODE":"231.0437","MEAN_MOTION_DOT":"0.00001368","TLE_LINE1":"1 47403U 21005BG  22041.79585728  .00001368  00000-0  11069-3 0  9994","PERIOD":"95.592","NORAD_CAT_ID":"47403","REV_AT_EPOCH":"5920","COUNTRY_CODE":"US"},{"SITE":"AFETR","REF_FRAME":"TEME","TLE_LINE2":"2 47404  53.0532 230.7612 0001730  69.6514 290.4661 15.06401340 59211","OBJECT_TYPE":"PAYLOAD","MEAN_ANOMALY":"290.4661","EPOCH":"2022-02-10T20:36:15.940512","BSTAR":"0.00013975000000","LAUNCH_DATE":"2021-01-20","APOAPSIS":"548.408","MEAN_MOTION":"15.06401340","CENTER_NAME":"EARTH","RCS_SIZE":"LARGE","PERIAPSIS":"546.011","MEAN_MOTION_DDOT":"0.0000000000000","ECCENTRICITY":"0.00017300","RA_OF_ASC_NODE":"230.7612","MEAN_MOTION_DOT":"0.00001801","TLE_LINE1":"1 47404U 21005BH  22041.85851783  .00001801  00000-0  13975-3 0  9999","PERIOD":"95.592","NORAD_CAT_ID":"47404","REV_AT_EPOCH":"5921","COUNTRY_CODE":"US","OBJECT_ID":"2021-005BH","ELEMENT_SET_NO":"999","SEMIMAJOR_AXIS":"6925.344","MEAN_ELEMENT_THEORY":"SGP4","CLASSIFICATION_TYPE":"U","INCLINATION":"53.0532","FILE":"3297147","TIME_SYSTEM":"UTC","DECAY_DATE":null,"OBJECT_NAME":"STARLINK-2128","EPHEMERIS_TYPE":"0","GP_ID":"195714847","ARG_OF_PERICENTER":"69.6514"},{"CENTER_NAME":"EARTH","MEAN_MOTION":"15.06404114","APOAPSIS":"548.362","ECCENTRICITY":"0.00016760","MEAN_MOTION_DDOT":"0.0000000000000","RCS_SIZE":"LARGE","PERIAPSIS":"546.040","OBJECT_TYPE":"PAYLOAD","MEAN_ANOMALY":"294.3846","REF_FRAME":"TEME","SITE":"AFETR","TLE_LINE2":"2 47405  53.0511 260.5329 0001676  65.7318 294.3846 15.06404114 58795","LAUNCH_DATE":"2021-01-20","BSTAR":"0.00005050400000","EPOCH":"2022-02-10T21:46:34.286592","FILE":"3297147","TIME_SYSTEM":"UTC","INCLINATION":"53.0511","ELEMENT_SET_NO":"999","SEMIMAJOR_AXIS":"6925.336","MEAN_ELEMENT_THEORY":"SGP4","CLASSIFICATION_TYPE":"U","OBJECT_ID":"2021-005BJ","ARG_OF_PERICENTER":"65.7318","GP_ID":"195714597","EPHEMERIS_TYPE":"0","OBJECT_NAME":"STARLINK-2130","DECAY_DATE":null,"PERIOD":"95.592","NORAD_CAT_ID":"47405","TLE_LINE1":"1 47405U 21005BJ  22041.90734128  .00000471  00000-0  50504-4 0  9991","MEAN_MOTION_DOT":"0.00000471","RA_OF_ASC_NODE":"260.5329","COUNTRY_CODE":"US","REV_AT_EPOCH":"5879"},{"INCLINATION":"53.0536","FILE":"3297147","TIME_SYSTEM":"UTC","OBJECT_ID":"2021-005BK","ELEMENT_SET_NO":"999","SEMIMAJOR_AXIS":"6925.341","MEAN_ELEMENT_THEORY":"SGP4","CLASSIFICATION_TYPE":"U","GP_ID":"195713346","ARG_OF_PERICENTER":"89.1881","OBJECT_NAME":"STARLINK-2133","DECAY_DATE":null,"EPHEMERIS_TYPE":"0","MEAN_MOTION_DOT":"0.00004243","TLE_LINE1":"1 47406U 21005BK  22041.86959688  .00004243  00000-0  30355-3 0  9999","PERIOD":"95.592","NORAD_CAT_ID":"47406","RA_OF_ASC_NODE":"230.7013","REV_AT_EPOCH":"5921","COUNTRY_CODE":"US","MEAN_MOTION":"15.06402348","CENTER_NAME":"EARTH","APOAPSIS":"548.267","ECCENTRICITY":"0.00015320","PERIAPSIS":"546.145","RCS_SIZE":"LARGE","MEAN_MOTION_DDOT":"0.0000000000000","REF_FRAME":"TEME","SITE":"AFETR","TLE_LINE2":"2 47406  53.0536 230.7013 0001532  89.1881 270.9284 15.06402348 59219","OBJECT_TYPE":"PAYLOAD","MEAN_ANOMALY":"270.9284","BSTAR":"0.00030355000000","LAUNCH_DATE":"2021-01-20","EPOCH":"2022-02-10T20:52:13.170432"},{"ECCENTRICITY":"0.00016920","MEAN_MOTION_DDOT":"0.0000000000000","RCS_SIZE":"LARGE","PERIAPSIS":"546.042","CENTER_NAME":"EARTH","MEAN_MOTION":"15.06399882","APOAPSIS":"548.386","LAUNCH_DATE":"2021-01-20","BSTAR":"0.00008371900000","EPOCH":"2022-02-10T21:02:47.671296","MEAN_ANOMALY":"292.3186","OBJECT_TYPE":"PAYLOAD","TLE_LINE2":"2 47407  53.0530 230.6800 0001692  67.7982 292.3186 15.06399882 59215","SITE":"AFETR","REF_FRAME":"TEME","ARG_OF_PERICENTER":"67.7982","GP_ID":"195713596","EPHEMERIS_TYPE":"0","OBJECT_NAME":"STARLINK-2134","DECAY_DATE":null,"TIME_SYSTEM":"UTC","FILE":"3297147","INCLINATION":"53.0530","CLASSIFICATION_TYPE":"U","MEAN_ELEMENT_THEORY":"SGP4","SEMIMAJOR_AXIS":"6925.349","ELEMENT_SET_NO":"999","OBJECT_ID":"2021-005BL","COUNTRY_CODE":"US","REV_AT_EPOCH":"5921","NORAD_CAT_ID":"47407","PERIOD":"95.592","MEAN_MOTION_DOT":"0.00000966","TLE_LINE1":"1 47407U 21005BL  22041.87694064  .00000966  00000-0  83719-4 0  9996","RA_OF_ASC_NODE":"230.6800"},{"BSTAR":"0.00014690000000","LAUNCH_DATE":"2021-01-20","EPOCH":"2022-02-10T20:20:20.201856","TLE_LINE2":"2 47408  53.0548 230.8018 0001584  65.9533 294.1622 15.06402134 59210","SITE":"AFETR","REF_FRAME":"TEME","MEAN_ANOMALY":"294.1622","OBJECT_TYPE":"PAYLOAD","ECCENTRICITY":"0.00015840","PERIAPSIS":"546.110","RCS_SIZE":"LARGE","MEAN_MOTION_DDOT":"0.0000000000000","MEAN_MOTION":"15.06402134","CENTER_NAME":"EARTH","APOAPSIS":"548.304","REV_AT_EPOCH":"5921","COUNTRY_CODE":"US","TLE_LINE1":"1 47408U 21005BM  22041.84745604  .00001907  00000-0  14690-3 0  9998","MEAN_MOTION_DOT":"0.00001907","NORAD_CAT_ID":"47408","PERIOD":"95.592","RA_OF_ASC_NODE":"230.8018","GP_ID":"195714348","ARG_OF_PERICENTER":"65.9533","DECAY_DATE":null,"OBJECT_NAME":"STARLINK-2135","EPHEMERIS_TYPE":"0","INCLINATION":"53.0548","TIME_SYSTEM":"UTC","FILE":"3297147","OBJECT_ID":"2021-005BM","CLASSIFICATION_TYPE":"U","MEAN_ELEMENT_THEORY":"SGP4","ELEMENT_SET_NO":"999","SEMIMAJOR_AXIS":"6925.342"},{"REV_AT_EPOCH":"5667","COUNTRY_CODE":"US","TLE_LINE1":"1 47548U 21009A   22041.78662405  .00000609  00000-0  59804-4 0  9992","MEAN_MOTION_DOT":"0.00000609","PERIOD":"95.592","NORAD_CAT_ID":"47548","RA_OF_ASC_NODE":"211.0843","GP_ID":"195714613","ARG_OF_PERICENTER":"68.8371","DECAY_DATE":null,"OBJECT_NAME":"STARLINK-1782","EPHEMERIS_TYPE":"0","INCLINATION":"53.0535","FILE":"3297147","TIME_SYSTEM":"UTC","OBJECT_ID":"2021-009A","SEMIMAJOR_AXIS":"6925.341","ELEMENT_SET_NO":"999","MEAN_ELEMENT_THEORY":"SGP4","CLASSIFICATION_TYPE":"U","BSTAR":"0.00005980400000","LAUNCH_DATE":"2021-02-04","EPOCH":"2022-02-10T18:52:44.317920","SITE":"AFETR","REF_FRAME":"TEME","TLE_LINE2":"2 47548  53.0535 211.0843 0001475  68.8371 291.2776 15.06402497 56676","OBJECT_TYPE":"PAYLOAD","MEAN_ANOMALY":"291.2776","ECCENTRICITY":"0.00014750","RCS_SIZE":"LARGE","PERIAPSIS":"546.184","MEAN_MOTION_DDOT":"0.0000000000000","MEAN_MOTION":"15.06402497","CENTER_NAME":"EARTH","APOAPSIS":"548.227"}];
